[{"OBJECT_NAME":"STARLINK-4122","OBJECT_ID":"2022-086AG","EPOCH":"2026-03-09T13:57:42.886368","MEAN_MOTION":15.08841375,"ECCENTRICITY":0.0001223,"INCLINATION":53.2172,"RA_OF_ASC_NODE":184.608,"ARG_OF_PERICENTER":76.6101,"MEAN_ANOMALY":283.5027,"EPHEMERIS_TYPE":0,"CLASSIFICATION_TYPE":"U","NORAD_CAT_ID":53272,"ELEMENT_SET_NO":999,"REV_AT_EPOCH":20118,"BSTAR":-1.2757e-5,"MEAN_MOTION_DOT":-4.91e-6,"MEAN_MOTION_DDOT":0},{"OBJECT_NAME":"CZ-6A DEB","OBJECT_ID":"2024-140ZB","EPOCH":"2026-03-09T13:53:53.181600","MEAN_MOTION":15.04943741,"ECCENTRICITY":0.0099448,"INCLINATION":89.0521,"RA_OF_ASC_NODE":283.407,"ARG_OF_PERICENTER":138.6562,"MEAN_ANOMALY":222.2259,"EPHEMERIS_TYPE":0,"CLASSIFICATION_TYPE":"U","NORAD_CAT_ID":61434,"ELEMENT_SET_NO":999,"REV_AT_EPOCH":8386,"BSTAR":0.0022399,"MEAN_MOTION_DOT":0.00035579,"MEAN_MOTION_DDOT":0}]
